OBJECT_NAME,OBJECT_ID,EPOCH,MEAN_MOTION,ECCENTRICITY,INCLINATION,RA_OF_ASC_NODE,ARG_OF_PERICENTER,MEAN_ANOMALY,EPHEMERIS_TYPE,CLASSIFICATION_TYPE,NORAD_CAT_ID,ELEMENT_SET_NO,REV_AT_EPOCH,BSTAR,MEAN_MOTION_DOT,MEAN_MOTION_DDOT
STARLINK-34469,2025-137X,2026-06-18T10:33:40.152384,15.30216522,.0001152,53.1577,227.0158,99.0565,261.0566,0,U,64615,999,5616,.70502E-3,.2059E-3,0
STARLINK-34413,2025-137Y,2026-06-18T10:54:25.192800,15.34399468,.0001097,53.1582,227.1036,318.2886,41.8033,0,U,64616,999,5626,.47908E-3,.15844E-3,0
STARLINK-34417,2025-137Z,2026-06-18T12:39:29.621088,15.34398379,.000086,53.1579,213.1396,46.2493,313.8581,0,U,64617,999,5646,.49637E-3,.1643E-3,0
STARLINK-34415,2025-137AA,2026-06-18T11:02:32.985600,15.30223535,.0001052,53.1561,227.1385,91.1096,269.0025,0,U,64618,999,5616,.32453E-3,.9271E-4,0
STARLINK-34416,2025-137AB,2026-06-18T20:22:18.032448,15.30210726,.00003576,53.1575,225.2966,35.0894,325.0131,0,U,64619,999,5622,.54379387E-3,.15786E-3,0
STARLINK-34414,2025-137AC,2026-06-18T22:00:01.999584,15.34384557,.00013663,53.1585,225.1471,72.5130,217.5234,0,U,64620,999,587,.32963454E-3,.10772E-3,0
STARLINK-34464,2025-139A,2026-06-18T17:23:20.756256,15.34399795,.00010211,53.1580,16.2814,85.6050,274.5069,0,U,64664,999,5577,.52408447E-3,.17372E-3,0
STARLINK-34555,2025-139B,2026-06-18T20:27:54.366048,15.34405268,.00010356,53.1586,15.6623,91.5452,268.5669,0,U,64665,999,5569,.69089285E-3,.23042E-3,0
STARLINK-34390,2025-139C,2026-06-18T22:47:01.131360,15.34397359,.0001203,53.1595,14.8446,93.9536,266.1604,0,U,64666,999,5587,.47436703E-3,.15683E-3,0
STARLINK-34382,2025-139D,2026-06-18T22:00:01.999584,15.34376248,.00011626,53.1591,17.0151,84.2429,150.3787,0,U,64667,999,590,.81901966E-3,.27376E-3,0
STARLINK-34395,2025-139E,2026-06-18T20:40:01.253568,15.34401354,.0000809,53.1580,15.7097,51.2565,308.8510,0,U,64668,999,5579,.60032396E-3,.19962E-3,0
STARLINK-34394,2025-139F,2026-06-18T20:21:50.699808,15.34400969,.00009989,53.1594,15.6394,75.6906,284.4208,0,U,64669,999,5579,.62503502E-3,.20801E-3,0
STARLINK-34287,2025-139G,2026-06-18T20:12:45.396576,15.34395507,.000111,53.1594,15.5933,88.8274,271.2855,0,U,64670,999,5579,.48587223E-3,.16073E-3,0
STARLINK-34365,2025-139H,2026-06-18T20:46:04.899072,15.34402260,.00013565,53.1577,15.7391,90.2001,269.9157,0,U,64671,999,5585,.53104098E-3,.17609E-3,0
STARLINK-34442,2025-139J,2026-06-18T19:54:34.558560,15.34400294,.00011599,53.1620,15.5160,92.5648,267.5487,0,U,64672,999,5579,.73957918E-3,.24694E-3,0
STARLINK-34288,2025-139K,2026-06-18T20:03:39.680352,15.34397973,.00008691,53.1602,15.5564,108.4236,251.6862,0,U,64673,999,5579,.49054694E-3,.16233E-3,0
STARLINK-34539,2025-139L,2026-06-18T18:14:43.352736,15.34410136,.00019782,53.1615,15.7938,95.5816,264.5412,0,U,64674,999,5568,.50910555E-3,.16869E-3,0
STARLINK-34590,2025-139M,2026-06-18T20:40:43.274208,15.34396402,.00006114,53.1587,17.1337,99.4840,260.6231,0,U,64675,999,5577,.29453146E-3,.9587E-4,0
STARLINK-34573,2025-139N,2026-06-18T22:43:59.251584,15.34383109,.00010049,53.1600,14.8251,85.1783,274.9334,0,U,64676,999,5581,.54197112E-3,.17969E-3,0
STARLINK-34605,2025-139P,2026-06-18T19:24:29.813760,15.30197529,.00012231,53.1622,6.8704,87.4619,272.6522,0,U,64677,999,5591,.76942315E-3,.22496E-3,0
STARLINK-34525,2025-139Q,2026-06-18T20:49:48.717408,15.34405064,.00007011,53.1605,17.1683,104.6526,255.4554,0,U,64678,999,5577,.88680482E-3,.29709E-3,0
STARLINK-34489,2025-139R,2026-06-18T20:43:02.918208,15.34400235,.00007763,53.1576,15.7172,19.8507,340.2526,0,U,64679,999,5579,.54178104E-3,.17973E-3,0
STARLINK-34502,2025-139S,2026-06-18T22:50:02.823648,15.34401729,.00011766,53.1599,14.8498,79.7571,280.3564,0,U,64680,999,5581,.32287201E-3,.10548E-3,0
STARLINK-34553,2025-139T,2026-06-18T22:40:57.544608,15.34405908,.00011853,53.1592,14.8147,72.0770,288.0362,0,U,64681,999,5581,.54733794E-3,.18165E-3,0
STARLINK-34551,2025-139U,2026-06-18T19:29:02.673600,15.30182266,.00006526,53.1623,6.8793,60.7323,299.3743,0,U,64682,999,5591,.49241725E-3,.14245E-3,0
STARLINK-34550,2025-139V,2026-06-18T20:09:43.540128,15.34403402,.00016174,53.1605,15.5775,96.4455,263.6731,0,U,64683,999,5579,.69591541E-3,.23212E-3,0
STARLINK-34485,2025-139W,2026-06-18T20:33:57.704832,15.34402393,.0000752,53.1586,15.6815,75.2702,284.8384,0,U,64684,999,5579,.36202117E-3,.11876E-3,0
STARLINK-34253,2025-139X,2026-06-18T20:49:06.706272,15.34405192,.00011577,53.1582,15.7417,40.7106,319.3982,0,U,64685,999,5579,.65484001E-3,.21817E-3,0
STARLINK-34565,2025-139Y,2026-06-18T18:51:06.018048,15.34405308,.00010154,53.1594,15.9477,111.8914,248.2196,0,U,64686,999,5578,.70066378E-3,.23375E-3,0
STARLINK-34554,2025-139Z,2026-06-18T21:25:20.704800,15.34415454,.00012049,53.1604,15.1970,85.0253,275.0887,0,U,64687,999,5580,.48388246E-3,.16015E-3,0
