STARLINK-34469          
1 64615U 25137X   26169.44004806  .00020590  00000+0  70502-3 0  9992
2 64615  53.1577 227.0158 0001152  99.0565 261.0566 15.30216522 56161
STARLINK-34413          
1 64616U 25137Y   26169.45445825  .00015844  00000+0  47908-3 0  9994
2 64616  53.1582 227.1036 0001097 318.2886  41.8033 15.34399468 56263
STARLINK-34417          
1 64617U 25137Z   26169.52742617  .00016430  00000+0  49637-3 0  9995
2 64617  53.1579 213.1396 0000860  46.2493 313.8581 15.34398379 56465
STARLINK-34415          
1 64618U 25137AA  26169.46010400  .00009271  00000+0  32453-3 0  9990
2 64618  53.1561 227.1385 0001052  91.1096 269.0025 15.30223535 56161
STARLINK-34416          
1 64619U 25137AB  26169.84881982  .00015786  00000+0  54379-3 0  9993
2 64619  53.1575 225.2966 0000357  35.0894 325.0131 15.30210726 56227
STARLINK-34414          
1 64620U 25137AC  26169.91668981  .00010772  00000+0  32963-3 0  9990
2 64620  53.1585 225.1471 0001366  72.5130 217.5234 15.34384557  5872
STARLINK-34464          
1 64664U 25139A   26169.72454579  .00017372  00000+0  52408-3 0  9994
2 64664  53.1580  16.2814 0001021  85.6050 274.5069 15.34399795 55772
STARLINK-34555          
1 64665U 25139B   26169.85271257  .00023042  00000+0  69089-3 0  9993
2 64665  53.1586  15.6623 0001035  91.5452 268.5669 15.34405268 55690
STARLINK-34390          
1 64666U 25139C   26169.94931865  .00015683  00000+0  47437-3 0  9997
2 64666  53.1595  14.8446 0001203  93.9536 266.1604 15.34397359 55875
STARLINK-34382          
1 64667U 25139D   26169.91668981  .00027376  00000+0  81902-3 0  9998
2 64667  53.1591  17.0151 0001162  84.2429 150.3787 15.34376248  5907
STARLINK-34395          
1 64668U 25139E   26169.86112562  .00019962  00000+0  60032-3 0  9995
2 64668  53.1580  15.7097 0000809  51.2565 308.8510 15.34401354 55795
STARLINK-34394          
1 64669U 25139F   26169.84850347  .00020801  00000+0  62504-3 0  9994
2 64669  53.1594  15.6394 0000998  75.6906 284.4208 15.34400969 55792
STARLINK-34287          
1 64670U 25139G   26169.84219209  .00016073  00000+0  48587-3 0  9993
2 64670  53.1594  15.5933 0001110  88.8274 271.2855 15.34395507 55796
STARLINK-34365          
1 64671U 25139H   26169.86533448  .00017609  00000+0  53104-3 0  9997
2 64671  53.1577  15.7391 0001356  90.2001 269.9157 15.34402260 55856
STARLINK-34442          
1 64672U 25139J   26169.82956665  .00024694  00000+0  73958-3 0  9995
2 64672  53.1620  15.5160 0001159  92.5648 267.5487 15.34400294 55799
STARLINK-34288          
1 64673U 25139K   26169.83587593  .00016233  00000+0  49055-3 0  9998
2 64673  53.1602  15.5564 0000869 108.4236 251.6862 15.34397973 55795
STARLINK-34539          
1 64674U 25139L   26169.76022399  .00016869  00000+0  50911-3 0  9997
2 64674  53.1615  15.7938 0001978  95.5816 264.5412 15.34410136 55688
STARLINK-34590          
1 64675U 25139M   26169.86161197  .00009587  00000+0  29453-3 0  9995
2 64675  53.1587  17.1337 0000611  99.4840 260.6231 15.34396402 55774
STARLINK-34573          
1 64676U 25139N   26169.94721356  .00017969  00000+0  54197-3 0  9990
2 64676  53.1600  14.8251 0001004  85.1783 274.9334 15.34383109 55812
STARLINK-34605          
1 64677U 25139P   26169.80867840  .00022496  00000+0  76942-3 0  9998
2 64677  53.1622   6.8704 0001223  87.4619 272.6522 15.30197529 55917
STARLINK-34525          
1 64678U 25139Q   26169.86792497  .00029709  00000+0  88680-3 0  9996
2 64678  53.1605  17.1683 0000701 104.6526 255.4554 15.34405064 55777
STARLINK-34489          
1 64679U 25139R   26169.86322822  .00017973  00000+0  54178-3 0  9993
2 64679  53.1576  15.7172 0000776  19.8507 340.2526 15.34400235 55799
STARLINK-34502          
1 64680U 25139S   26169.95142157  .00010548  00000+0  32287-3 0  9994
2 64680  53.1599  14.8498 0001176  79.7571 280.3564 15.34401729 55816
STARLINK-34553          
1 64681U 25139T   26169.94511047  .00018165  00000+0  54734-3 0  9996
2 64681  53.1592  14.8147 0001185  72.0770 288.0362 15.34405908 55812
STARLINK-34551          
1 64682U 25139U   26169.81183650  .00014245  00000+0  49242-3 0  9991
2 64682  53.1623   6.8793 0000652  60.7323 299.3743 15.30182266 55916
STARLINK-34550          
1 64683U 25139V   26169.84008727  .00023212  00000+0  69592-3 0  9990
2 64683  53.1605  15.5775 0001617  96.4455 263.6731 15.34403402 55797
STARLINK-34485          
1 64684U 25139W   26169.85691788  .00011876  00000+0  36202-3 0  9992
2 64684  53.1586  15.6815 0000752  75.2702 284.8384 15.34402393 55798
STARLINK-34253          
1 64685U 25139X   26169.86743873  .00021817  00000+0  65484-3 0  9997
2 64685  53.1582  15.7417 0001157  40.7106 319.3982 15.34405192 55797
STARLINK-34565          
1 64686U 25139Y   26169.78548632  .00023375  00000+0  70066-3 0  9998
2 64686  53.1594  15.9477 0001015 111.8914 248.2196 15.34405308 55784
STARLINK-34554          
1 64687U 25139Z   26169.89260075  .00016015  00000+0  48388-3 0  9998
2 64687  53.1604  15.1970 0001204  85.0253 275.0887 15.34415454 55806
